BEIDOU-2 IGSO-1 (C06)   
1 36828U 10036A   23217.32379247 -.00000125  00000+0  00000+0 0  9996
2 36828  54.2382 172.4427 0037110 190.5784 175.9688  1.00261915 47736
BEIDOU-2 G4 (C04)       
1 37210U 10057A   23216.60370719 -.00000125  00000+0  00000+0 0  9990
2 37210   1.1099  59.3467 0004739 142.9637 127.8403  1.00269482 46786
BEIDOU-2 IGSO-2 (C07)   
1 37256U 10068A   23217.21820807 -.00000192  00000+0  00000+0 0  9992
2 37256  49.4610 284.6705 0032244 210.5038   3.3346  1.00293489 46280
BEIDOU-2 IGSO-3 (C08)   
1 37384U 11013A   23216.47557990 -.00000172  00000+0  00000+0 0  9990
2 37384  60.8928  50.1924 0027230 173.2354   7.5379  1.00289287 45164
BEIDOU-2 IGSO-4 (C09)   
1 37763U 11038A   23216.83198608 -.00000044  00000+0  00000+0 0  9993
2 37763  54.5123 174.9850 0112284 228.4345 304.4011  1.00280016 44131
BEIDOU-2 IGSO-5 (C10)   
1 37948U 11073A   23216.67215687 -.00000145  00000+0  00000+0 0  9998
2 37948  49.5869 284.3440 0094645 219.7681 146.6775  1.00279582 42906
BEIDOU-2 G5 (C05)       
1 38091U 12008A   23216.68104449  .00000046  00000+0  00000+0 0  9990
2 38091   1.6385  67.8992 0000888 188.4898   0.4145  1.00273122 41970
BEIDOU-2 M3 (C11)       
1 38250U 12018A   23217.12880037 -.00000097  00000+0  00000+0 0  9999
2 38250  56.5284 339.8761 0022115 255.0346 104.7304  1.86231024 76787
BEIDOU-2 M4 (C12)       
1 38251U 12018B   23216.52340791 -.00000094  00000+0  00000+0 0  9998
2 38251  56.4398 339.1915 0012957 254.5857 105.2808  1.86231728 76776
BEIDOU-2 M6 (C14)       
1 38775U 12050B   23216.23348371 -.00000015  00000+0  00000+0 0  9998
2 38775  55.6672  97.8110 0012762 336.9664  23.0530  1.86231177 74149
BEIDOU-2 G6 (C02)       
1 38953U 12059A   23216.78836300 -.00000187  00000+0  00000+0 0  9999
2 38953   1.9535  82.2769 0008610 321.9910 276.6601  1.00270835 39542
BEIDOU-3S IGSO-1S (C31) 
1 40549U 15019A   23217.22011549 -.00000184  00000+0  00000+0 0  9999
2 40549  51.1537 307.9264 0040592 194.4902 345.8438  1.00262309 30580
BEIDOU-3S M2S (C57)     
1 40748U 15037A   23216.72645522 -.00000096  00000+0  00000+0 0  9990
2 40748  55.6811 337.8032 0009896 238.3044 121.6108  1.86233018 54610
BEIDOU-3S M1S (C58)     
1 40749U 15037B   23213.23785484 -.00000084  00000+0  00000+0 0  9993
2 40749  55.6862 337.9073 0002369 329.3476  30.6437  1.86232773 54544
BEIDOU-3S IGSO-2S (C56) 
1 40938U 15053A   23216.61668125 -.00000110  00000+0  00000+0 0  9998
2 40938  50.8540 271.1023 0047909 193.5241 164.9531  1.00289880 28845
BEIDOU-2 IGSO-6 (C13)   
1 41434U 16021A   23217.31975310 -.00000153  00000+0  00000+0 0  9998
2 41434  58.7072  48.5687 0046226 217.8481 257.6560  1.00288527 26985
BEIDOU-2 G7 (C03)       
1 41586U 16037A   23216.73223757 -.00000366  00000+0  00000+0 0  9995
2 41586   1.7994  68.0127 0007781 350.6601 268.4981  1.00273438 26288
BEIDOU-3 M1 (C19)       
1 43001U 17069A   23215.99986612 -.00000013  00000+0  00000+0 0  9997
2 43001  55.8187  97.8736 0009064 302.9455  57.0440  1.86231427 39085
BEIDOU-3 M2 (C20)       
1 43002U 17069B   23214.32565960 -.00000008  00000+0  00000+0 0  9997
2 43002  55.8168  97.9658 0007571 330.1171  29.9142  1.86231056 39049
BEIDOU-3 M7 (C27)       
1 43107U 18003A   23216.22442492 -.00000094  00000+0  00000+0 0  9992
2 43107  55.1372 338.5502 0004310  77.4602 282.5980  1.86232341 37846
BEIDOU-3 M8 (C28)       
1 43108U 18003B   23215.62531369 -.00000092  00000+0  00000+0 0  9996
2 43108  55.1306 338.5579 0003183 239.1779 120.8000  1.86230786 37834
BEIDOU-3 M4 (C22)       
1 43207U 18018A   23213.92005505 -.00000008  00000+0  00000+0 0  9998
2 43207  55.7759  98.0436 0005659   0.1262 359.9468  1.86231298 37185
BEIDOU-3 M3 (C21)       
1 43208U 18018B   23216.13450479 -.00000014  00000+0  00000+0 0  9996
2 43208  55.7771  97.9736 0007087 317.7363  42.2856  1.86231208 37226
BEIDOU-3 M9 (C29)       
1 43245U 18029A   23216.35746141 -.00000094  00000+0  00000+0 0  9995
2 43245  55.0325 336.2821 0000975 179.5626 180.4504  1.86232303 36382
BEIDOU-3 M10 (C30)      
1 43246U 18029B   23216.82449494 -.00000096  00000+0  00000+0 0  9991
2 43246  55.0294 336.2952 0002934  11.2668 348.7530  1.86232816 36385
BEIDOU-2 IGSO-7 (C16)   
1 43539U 18057A   23216.80118934 -.00000131  00000+0  00000+0 0  9997
2 43539  55.1228 172.1260 0065076 231.8324 309.2768  1.00292617 18658
BEIDOU-3 M5 (C23)       
1 43581U 18062A   23216.50797494  .00000056  00000+0  00000+0 0  9996
2 43581  54.1831 217.9637 0005740 273.6716  86.2660  1.86231738 34125
BEIDOU-3 M6 (C24)       
1 43582U 18062B   23216.37352897  .00000056  00000+0  00000+0 0  9996
2 43582  54.1827 217.9577 0004564 346.8857  13.1060  1.86229474 34123
BEIDOU-3 M12 (C26)      
1 43602U 18067A   23217.38401864  .00000061  00000+0  00000+0 0  9991
2 43602  54.2700 216.5759 0006673   9.2540 350.7576  1.86231549 33628
BEIDOU-3 M11 (C25)      
1 43603U 18067B   23216.44394137  .00000056  00000+0  00000+0 0  9996
2 43603  54.2673 216.5737 0003897 350.7444   9.2492  1.86231477 33630
BEIDOU-3 M13 (C32)      
1 43622U 18072A   23216.93953726 -.00000022  00000+0  00000+0 0  9996
2 43622  55.7474  97.4833 0005669 302.2026  57.8179  1.86231606 33158
BEIDOU-3 M14 (C33)      
1 43623U 18072B   23215.19414265 -.00000009  00000+0  00000+0 0  9999
2 43623  55.7480  97.5345 0004195 337.5649  22.4935  1.86231609 33128
BEIDOU-3 M16 (C35)      
1 43647U 18078A   23216.42964664 -.00000094  00000+0  00000+0 0  9995
2 43647  54.9285 336.4050 0006285  15.8285 344.2038  1.86227163 32656
BEIDOU-3 M15 (C34)      
1 43648U 18078B   23216.02414161 -.00000092  00000+0  00000+0 0  9992
2 43648  54.9245 336.4230 0003420  34.2465 325.7877  1.86232135 32667
BEIDOU-3 G1 (C59)       
1 43683U 18085A   23216.81482516 -.00000291  00000+0  00000+0 0  9996
2 43683   1.4502 126.5325 0003241 347.3832 272.4964  1.00266675 17557
BEIDOU-3 M17 (C36)      
1 43706U 18093A   23216.17244316  .00000056  00000+0  00000+0 0  9992
2 43706  54.2656 217.8902 0010782 276.7437  83.1379  1.86231832 32003
BEIDOU-3 M18 (C37)      
1 43707U 18093B   23217.11193783  .00000059  00000+0  00000+0 0  9992
2 43707  54.2662 217.8496 0008732 299.8707  60.0442  1.86229636 32034
BEIDOU-3 IGSO-1 (C38)   
1 44204U 19023A   23217.47875527 -.00000213  00000+0  00000+0 0  9994
2 44204  57.1734  48.5549 0022819 193.5612   2.5524  1.00291174 15860
BEIDOU-2 G8 (C01)       
1 44231U 19027A   23216.81728476 -.00000259  00000+0  00000+0 0  9995
2 44231   1.8798  81.2462 0005755 123.3080 187.3023  1.00270562 15576
BEIDOU-3 IGSO-2 (C39)   
1 44337U 19035A   23216.26322718 -.00000143  00000+0  00000+0 0  9991
2 44337  55.1549 168.0655 0033382 198.2961 160.0879  1.00283985 15180
BEIDOU-3 M24 (C46)      
1 44542U 19061A   23217.18389401  .00000059  00000+0  00000+0 0  9997
2 44542  54.4929 218.0797 0008197 333.6646  26.2960  1.86231341 26297
BEIDOU-3 M23 (C45)      
1 44543U 19061B   23216.34132858  .00000056  00000+0  00000+0 0  9994
2 44543  54.4912 218.0772 0005887 314.8403 112.0700  1.86231563 26278
BEIDOU-3 IGSO-3 (C40)   
1 44709U 19073A   23216.61293682 -.00000181  00000+0  00000+0 0  9994
2 44709  56.5844 292.0765 0034984 188.1664 171.8818  1.00291581 13938
BEIDOU-3 M22 (C44)      
1 44793U 19078A   23215.41826394 -.00000090  00000+0  00000+0 0  9990
2 44793  54.7778 336.4109 0005296  25.6907 334.3466  1.86232110 25127
BEIDOU-3 M21 (C43)      
1 44794U 19078B   23217.15975793 -.00000099  00000+0  00000+0 0  9991
2 44794  54.7503 336.3336 0003108  22.2609 337.7663  1.86232566 25151
BEIDOU-3 M19 (C41)      
1 44864U 19090A   23217.16405904 -.00000025  00000+0  00000+0 0  9995
2 44864  55.6821  97.6639 0016325 277.7892 278.9882  1.86231697 24726
BEIDOU-3 M20 (C42)      
1 44865U 19090B   23217.45391385 -.00000028  00000+0  00000+0 0  9998
2 44865  55.6843  97.6870 0014362 292.4309 188.4702  1.86231641 24718
BEIDOU-3 G2 (C60)       
1 45344U 20017A   23217.04364506 -.00000152  00000+0  00000+0 0  9990
2 45344   2.0310  14.6317 0003278 132.2595 262.1725  1.00272466 12777
BEIDOU-3 G3 (C61)       
1 45807U 20040A   23217.40804405 -.00000364  00000+0  00000+0 0  9992
2 45807   0.6442 337.9172 0004876   0.3554 232.7779  1.00276749 11584
BEIDOU-3 G4             
1 56564U 23066A   23216.60465786 -.00000123  00000+0  00000+0 0  9994
2 56564   2.9196 288.9413 0007352 202.7601 198.7858  1.00269631   908
